BEIDOU-2 IGSO-1 (C06)   
1 36828U 10036A   23248.36313309 -.00000136  00000+0  00000+0 0  9993
2 36828  54.2366 172.1629 0036774 189.1073 220.6789  1.00253067 48021
BEIDOU-2 G4 (C04)       
1 37210U 10057A   23248.52029817 -.00000125  00000+0  00000+0 0  9996
2 37210   1.1786  60.9339 0006184 153.3152 117.3342  1.00271358 47107
BEIDOU-2 IGSO-2 (C07)   
1 37256U 10068A   23248.49396161 -.00000185  00000+0  00000+0 0  9999
2 37256  49.4053 284.2894 0032599 212.0026 133.8921  1.00283639 46603
BEIDOU-2 IGSO-3 (C08)   
1 37384U 11013A   23248.27697270 -.00000174  00000+0  00000+0 0  9991
2 37384  60.9418  49.8835 0027876 174.0351 327.9625  1.00281471 45471
BEIDOU-2 IGSO-4 (C09)   
1 37763U 11038A   23248.16817650 -.00000111  00000+0  00000+0 0  9994
2 37763  54.5107 174.7064 0112185 228.1556  97.2589  1.00273857 44456
BEIDOU-2 IGSO-5 (C10)   
1 37948U 11073A   23248.54351347 -.00000138  00000+0  00000+0 0  9995
2 37948  49.5305 283.9568 0095230 220.2651 131.8326  1.00272388 42941
BEIDOU-2 G5 (C05)       
1 38091U 12008A   23248.50010894  .00000045  00000+0  00000+0 0  9995
2 38091   1.7122  68.4526 0003257 171.7982 342.7870  1.00273130 42182
BEIDOU-2 M3 (C11)       
1 38250U 12018A   23248.27229327 -.00000114  00000+0  00000+0 0  9998
2 38250  56.5106 338.8443 0023448 255.4391 104.3400  1.86231104 77020
BEIDOU-2 M4 (C12)       
1 38251U 12018B   23247.66677430 -.00000111  00000+0  00000+0 0  9990
2 38251  56.4215 338.1574 0014303 254.9992 104.8830  1.86231792 77014
BEIDOU-2 M6 (C14)       
1 38775U 12050B   23247.91367216 -.00000030  00000+0  00000+0 0  9993
2 38775  55.6910  96.7475 0011671 339.8059  20.2238  1.86231252 74388
BEIDOU-2 G6 (C02)       
1 38953U 12059A   23248.59749176 -.00000186  00000+0  00000+0 0  9996
2 38953   1.8286  81.9494 0007088 311.8047 249.7594  1.00268879 39729
BEIDOU-3S IGSO-1S (C31) 
1 40549U 15019A   23248.60058190 -.00000164  00000+0  00000+0 0  9996
2 40549  51.0959 307.5562 0041057 195.9683 150.8015  1.00255936 30889
BEIDOU-3S M2S (C57)     
1 40748U 15037A   23248.40646514 -.00000114  00000+0  00000+0 0  9993
2 40748  55.6615 336.7316 0011286 241.0085 118.9193  1.86233124 55204
BEIDOU-3S M1S (C58)     
1 40749U 15037B   23247.60267051 -.00000111  00000+0  00000+0 0  9997
2 40749  55.6651 336.7451 0003144 301.3580  58.6530  1.86232837 55192
BEIDOU-3S IGSO-2S (C56) 
1 40938U 15053A   23248.48383334 -.00000111  00000+0  00000+0 0  9995
2 40938  50.8068 270.7293 0048168 194.1872 149.6433  1.00283004 29168
BEIDOU-2 IGSO-6 (C13)   
1 41434U 16021A   23248.35479861 -.00000154  00000+0  00000+0 0  9997
2 41434  58.7561  48.2530 0047104 217.8684 302.2378  1.00282781 27298
BEIDOU-2 G7 (C03)       
1 41586U 16037A   23248.61178855 -.00000366  00000+0  00000+0 0  9995
2 41586   1.8734  68.4678 0006870 345.2036 261.5818  1.00270423 26606
BEIDOU-3 M1 (C19)       
1 43001U 17069A   23248.21696626 -.00000031  00000+0  00000+0 0  9991
2 43001  55.8427  96.7959 0007784 302.3468  57.6527  1.86231603 39686
BEIDOU-3 M2 (C20)       
1 43002U 17069B   23247.07979341 -.00000023  00000+0  00000+0 0  9994
2 43002  55.8410  96.8704 0006310 334.2346  25.8132  1.86231145 39658
BEIDOU-3 M7 (C27)       
1 43107U 18003A   23247.36755801 -.00000111  00000+0  00000+0 0  9992
2 43107  55.1184 337.4834 0003530  78.6147 281.4657  1.86232420 38414
BEIDOU-3 M8 (C28)       
1 43108U 18003B   23248.37956737 -.00000115  00000+0  00000+0 0  9990
2 43108  55.1107 337.4356 0004004 242.8603 117.1387  1.86230905 38442
BEIDOU-3 M4 (C22)       
1 43207U 18018A   23248.28497886 -.00000032  00000+0  00000+0 0  9999
2 43207  55.8015  96.8925 0004961  13.9381 346.1505  1.86231537 37826
BEIDOU-3 M3 (C21)       
1 43208U 18018B   23247.81468217 -.00000029  00000+0  00000+0 0  9990
2 43208  55.8006  96.9126 0005837 320.1633  39.8700  1.86231414 37813
BEIDOU-3 M9 (C29)       
1 43245U 18029A   23248.57445410 -.00000114  00000+0  00000+0 0  9992
2 43245  55.0116 335.1751 0001457 215.2378 144.7946  1.86232621 36980
BEIDOU-3 M10 (C30)      
1 43246U 18029B   23246.89363951 -.00000107  00000+0  00000+0 0  9997
2 43246  55.0102 335.2620 0002696 356.7792   3.2632  1.86232871 36932
BEIDOU-2 IGSO-7 (C16)   
1 43539U 18057A   23248.59241181 -.00000147  00000+0  00000+0 0  9996
2 43539  55.1208 171.8482 0064526 231.2332 267.9727  1.00283300 18968
BEIDOU-3 M5 (C23)       
1 43581U 18062A   23248.18779749  .00000048  00000+0  00000+0 0  9999
2 43581  54.1783 216.8829 0005280 279.8878  80.0239  1.86231870 34714
BEIDOU-3 M6 (C24)       
1 43582U 18062B   23248.05372402  .00000048  00000+0  00000+0 0  9991
2 43582  54.1780 216.8770 0004958 354.7204   5.2452  1.86229672 34717
BEIDOU-3 M12 (C26)      
1 43602U 18067A   23247.45306286  .00000046  00000+0  00000+0 0  9997
2 43602  54.2654 215.5531 0006966  11.9983 347.9865  1.86231510 34188
BEIDOU-3 M11 (C25)      
1 43603U 18067B   23248.12384026  .00000047  00000+0  00000+0 0  9992
2 43603  54.2623 215.4961 0004101 356.2466   3.7211  1.86231457 34228
BEIDOU-3 M13 (C32)      
1 43622U 18072A   23247.00881806 -.00000023  00000+0  00000+0 0  9998
2 43622  55.7699  96.4758 0004547 299.6749  60.3589  1.86231590 33715
BEIDOU-3 M14 (C33)      
1 43623U 18072B   23247.94817191 -.00000030  00000+0  00000+0 0  9996
2 43623  55.7724  96.4370 0003114 347.7338  12.3340  1.86231604 33733
BEIDOU-3 M16 (C35)      
1 43647U 18078A   23247.57362431 -.00000110  00000+0  00000+0 0  9998
2 43647  54.9087 335.3325 0005936   9.8001 350.2546  1.86227234 33224
BEIDOU-3 M15 (C34)      
1 43648U 18078B   23247.70423235 -.00000111  00000+0  00000+0 0  9995
2 43648  54.9041 335.3318 0002818  23.4351 336.6206  1.86232237 33245
BEIDOU-3 G1 (C59)       
1 43683U 18085A   23248.51629514 -.00000291  00000+0  00000+0 0  9999
2 43683   1.5166 124.2943 0002562 359.2001 186.6932  1.00267004 17873
BEIDOU-3 M17 (C36)      
1 43706U 18093A   23247.31530620  .00000045  00000+0  00000+0 0  9996
2 43706  54.2608 216.8300 0010373 279.7238  80.1270  1.86231921 32601
BEIDOU-3 M18 (C37)      
1 43707U 18093B   23248.25517599  .00000048  00000+0  00000+0 0  9994
2 43707  54.2614 216.7896 0008539 304.5382  55.3527  1.86229779 32614
BEIDOU-3 IGSO-1 (C38)   
1 44204U 19023A   23248.47138681 -.00000209  00000+0  00000+0 0  9996
2 44204  57.2226  48.2288 0023436 194.0793  31.4516  1.00282135 16158
BEIDOU-2 G8 (C01)       
1 44231U 19027A   23248.53411461 -.00000259  00000+0  00000+0 0  9992
2 44231   1.9587  81.1383 0006498 130.3154 109.7497  1.00271330 15891
BEIDOU-3 IGSO-2 (C39)   
1 44337U 19035A   23248.60105417 -.00000151  00000+0  00000+0 0  9998
2 44337  55.1535 167.7814 0033084 197.1730 315.6255  1.00274276 15481
BEIDOU-3 M24 (C46)      
1 44542U 19061A   23247.25297912  .00000046  00000+0  00000+0 0  9999
2 44542  54.4882 217.0622 0008390 338.7356  21.1974  1.86231459 26851
BEIDOU-3 M23 (C45)      
1 44543U 19061B   23248.58908426  .00000049  00000+0  00000+0 0  9999
2 44543  54.4863 216.9859 0005872 321.8395 125.7833  1.86231775 26888
BEIDOU-3 IGSO-3 (C40)   
1 44709U 19073A   23248.52092831 -.00000172  00000+0  00000+0 0  9992
2 44709  56.5319 291.7399 0035202 189.8832 170.1287  1.00281846 14276
BEIDOU-3 M22 (C44)      
1 44793U 19078A   23244.42588339 -.00000092  00000+0  00000+0 0  9999
2 44793  54.7609 335.4061 0004851  18.8791 349.4177  1.86232080 25668
BEIDOU-3 M21 (C43)      
1 44794U 19078B   23248.30281099 -.00000113  00000+0  00000+0 0  9998
2 44794  54.7303 335.2566 0002761   9.8975 350.1500  1.86232650 25730
BEIDOU-3 M19 (C41)      
1 44864U 19090A   23246.93004080 -.00000022  00000+0  00000+0 0  9999
2 44864  55.7043  96.6649 0015462 276.0152  77.4497  1.86231756 25287
BEIDOU-3 M20 (C42)      
1 44865U 19090B   23248.23655463 -.00000032  00000+0  00000+0 0  9993
2 44865  55.7071  96.6537 0013360 291.4132 307.7922  1.86231772 25290
BEIDOU-3 G2 (C60)       
1 45344U 20017A   23248.50437304 -.00000153  00000+0  00000+0 0  9993
2 45344   2.0486  16.2617 0003201 157.5582  72.1212  1.00272770 13076
BEIDOU-3 G3 (C61)       
1 45807U 20040A   23248.61188056 -.00000365  00000+0  00000+0 0  9997
2 45807   0.6144 343.9793 0005839 331.6896 359.6010  1.00275227 11888
BEIDOU-3 G4             
1 56564U 23066A   23248.54321295 -.00000123  00000+0  00000+0 0  9998
2 56564   2.8416 288.7929 0006877 212.9250 198.1922  1.00272947  1211
